OBJECT_NAME,OBJECT_ID,EPOCH,MEAN_MOTION,ECCENTRICITY,INCLINATION,RA_OF_ASC_NODE,ARG_OF_PERICENTER,MEAN_ANOMALY,EPHEMERIS_TYPE,CLASSIFICATION_TYPE,NORAD_CAT_ID,ELEMENT_SET_NO,REV_AT_EPOCH,BSTAR,MEAN_MOTION_DOT,MEAN_MOTION_DDOT
STARLINK-34095,2025-092F,2026-06-12T06:18:07.983360,15.27586712,.00014446,43.0048,358.8615,271.6872,88.3814,0,U,63809,999,6307,.75432398E-3,.20557E-3,0
STARLINK-34127,2025-092G,2026-06-09T23:59:27.338208,15.27602228,.00015772,43.0015,11.1094,271.5242,88.5429,0,U,63810,999,6273,.68017722E-3,.18515E-3,0
STARLINK-34101,2025-092J,2026-06-12T06:25:19.596288,15.27590550,.00022432,43.0095,358.0289,276.3229,83.7367,0,U,63812,999,6302,.90048452E-3,.24608E-3,0
STARLINK-34065,2025-092K,2026-06-12T19:04:48.730944,15.27589831,.0001661,43.0025,351.5987,273.4223,86.6439,0,U,63813,999,6314,.71853E-3,.19569E-3,0
STARLINK-34057,2025-092L,2026-06-12T19:09:40.648032,15.27618766,.0001264,43.0076,355.1318,274.0178,86.0530,0,U,63814,999,6316,.80643E-3,.22021E-3,0
STARLINK-34060,2025-092M,2026-06-12T19:11:31.683264,15.27613985,.0001738,43.0093,355.1475,278.4507,81.6147,0,U,63815,999,6310,.81581E-3,.22278E-3,0
STARLINK-34048,2025-092N,2026-06-12T06:08:51.968256,15.27595879,.00042718,43.0069,358.8067,266.5296,93.5067,0,U,63816,999,6312,.7799971E-3,.21278E-3,0
STARLINK-33959,2025-092P,2026-06-12T06:21:39.904416,15.27588872,.00005315,43.0052,358.0119,80.4347,279.6564,0,U,63817,999,6313,.83304731E-3,.22738E-3,0
STARLINK-34058,2025-092Q,2026-06-12T19:04:07.962240,15.27627124,.0000443,42.9996,355.1043,180.0304,180.0547,0,U,63818,999,6321,.74702E-3,.20381E-3,0
STARLINK-34055,2025-092R,2026-06-12T19:27:01.202976,15.31364645,.0006041,43.0027,355.1944,284.7697,75.2486,0,U,63819,999,6316,.16587E-2,.51404E-3,0
STARLINK-33794,2025-092S,2026-06-12T20:01:29.517888,15.27629731,.0001683,43.0006,355.4061,277.3516,82.7144,0,U,63820,999,6316,.82835E-3,.22637E-3,0
STARLINK-34047,2025-092T,2026-06-12T19:55:56.377632,15.27602566,.0000487,43.0091,355.3753,285.1010,74.9787,0,U,63821,999,6321,.69448E-3,.1891E-3,0
STARLINK-34094,2025-092U,2026-06-12T06:04:02.610336,15.27600946,.00013239,43.0049,355.2908,264.7235,95.3465,0,U,63822,999,6316,.74593287E-3,.20334E-3,0
STARLINK-34043,2025-092V,2026-06-12T06:07:30.048960,15.27596026,.00030071,43.0127,354.4427,268.6227,91.4281,0,U,63823,999,6312,.92052057E-3,.25169E-3,0
STARLINK-34025,2025-092W,2026-06-12T06:29:02.028768,15.27595719,.00002456,43.0035,358.0461,220.4790,139.6043,0,U,63824,999,6302,.70666885E-3,.19244E-3,0
STARLINK-33874,2025-092X,2026-06-12T05:41:08.376000,15.27598446,.00003599,43.0127,358.6619,107.3883,252.7009,0,U,63825,999,6312,.82710507E-3,.2258E-3,0
STARLINK-33781,2025-092Y,2026-06-12T20:14:26.609856,15.27596000,.0001941,43.0128,355.4647,68.2695,291.8364,0,U,63826,999,6321,.58865E-3,.15979E-3,0
STARLINK-33891,2025-092Z,2026-06-12T06:16:16.617216,15.27600247,.00027906,43.0057,358.8401,269.0302,91.0230,0,U,63827,999,6301,.84645936E-3,.23119E-3,0
STARLINK-33903,2025-092AA,2026-06-12T19:41:08.025792,15.27608734,.0001051,43.0091,355.2955,120.7041,239.3914,0,U,63828,999,6321,.76917E-3,.20982E-3,0
STARLINK-33889,2025-092AB,2026-06-12T19:20:46.800672,15.27630170,.0000283,42.9990,355.1902,153.3109,206.7758,0,U,63829,999,6310,.80541E-3,.22001E-3,0
STARLINK-33984,2025-092AC,2026-06-12T19:31:52.972320,15.27618980,.0002844,43.0026,355.2410,278.8244,81.2285,0,U,63830,999,6316,.11612E-2,.31869E-3,0
STARLINK-33940,2025-092AD,2026-06-12T19:46:40.913760,15.27605149,.0000948,42.9977,355.3287,274.6191,85.4553,0,U,63831,999,6321,.68815E-3,.18737E-3,0
STARLINK-33978,2025-092AE,2026-06-10T23:28:06.054240,15.27605413,.00020248,43.0005,5.5491,272.4636,87.5984,0,U,63832,999,6293,.59390355E-3,.16129E-3,0
STARLINK-34018,2025-093A,2026-06-10T00:49:41.683008,15.27597419,.00018441,43.0034,276.5245,268.6108,91.4533,0,U,63836,999,6209,.85943106E-3,.23476E-3,0
STARLINK-34053,2025-093B,2026-06-11T14:25:46.360992,15.27562961,.000121,42.9997,267.6370,256.0706,104.0011,0,U,63837,999,6227,.72288E-3,.19673E-3,0
STARLINK-34042,2025-093C,2026-06-11T22:59:34.483200,15.27600598,.00008754,43.0012,261.6875,290.9341,69.1417,0,U,63838,999,6243,.88135517E-3,.24085E-3,0
STARLINK-34040,2025-093D,2026-06-11T23:32:10.605984,15.27599130,.00024056,43.0024,265.3229,285.5776,74.4810,0,U,63839,999,6239,.9069408E-3,.24794E-3,0
STARLINK-33990,2025-093E,2026-06-12T18:25:45.228576,15.27601113,.0001245,43.0023,260.8961,280.2470,79.8241,0,U,63840,999,6229,.59741E-3,.16224E-3,0
STARLINK-34056,2025-093F,2026-06-12T17:19:21.393696,15.27603594,.000065,43.0006,261.4285,267.9990,92.0787,0,U,63841,999,6228,.87045E-3,.23785E-3,0
STARLINK-34026,2025-093G,2026-06-11T00:33:08.722368,15.27583133,.00010968,43.0034,271.0370,290.5551,69.5183,0,U,63842,999,6202,.78602727E-3,.21432E-3,0
STARLINK-33777,2025-093H,2026-06-11T13:46:53.364864,15.27587273,.0001307,43.0029,267.4300,283.4671,76.6035,0,U,63843,999,6233,.52999E-3,.14354E-3,0
STARLINK-34041,2025-093J,2026-06-11T00:40:32.690496,15.27596192,.00014136,43.0031,271.0732,268.1674,91.9015,0,U,63844,999,6224,.86063599E-3,.23508E-3,0
STARLINK-34011,2025-093K,2026-06-11T13:24:53.822592,15.27595124,.0000404,43.0017,268.1854,251.2479,108.8329,0,U,63845,999,6210,.69399E-3,.18893E-3,0
STARLINK-34044,2025-093L,2026-06-11T23:13:41.624832,15.27622157,.00018015,42.9972,265.2238,263.6722,96.3924,0,U,63846,999,6217,.9094624E-3,.24881E-3,0
STARLINK-34037,2025-093M,2026-06-11T23:28:29.435808,15.27591901,.00000333,43.0095,265.3057,58.6381,301.4474,0,U,63847,999,6239,.64384043E-3,.17503E-3,0
STARLINK-34010,2025-093N,2026-06-11T23:37:43.869792,15.27590661,.00025101,42.9938,265.3471,277.8572,82.1994,0,U,63848,999,6217,.53927107E-3,.14612E-3,0
STARLINK-34009,2025-093P,2026-06-11T13:07:05.356128,15.27596515,.0000675,43.0014,264.6203,270.2050,89.8724,0,U,63849,999,6236,.77245E-3,.21065E-3,0
STARLINK-33958,2025-093Q,2026-06-10T08:00:01.999872,15.27565933,.00017541,43.0028,275.0157,270.5961,217.0145,0,U,63850,999,587,.10471599E-2,.28653E-3,0
STARLINK-33776,2025-093R,2026-06-11T13:54:17.726976,15.27597380,.000041,43.0160,267.4719,133.7916,226.2970,0,U,63851,999,6232,.11093E-2,.30404E-3,0
STARLINK-34032,2025-093T,2026-06-11T23:22:56.165088,15.27592482,.00003911,43.0094,265.2564,129.0866,231.0020,0,U,63853,999,6239,.62379482E-3,.16949E-3,0
STARLINK-34015,2025-093U,2026-06-11T00:46:05.168064,15.27592718,.00022389,43.0060,271.0847,278.4873,81.5725,0,U,63854,999,6208,.6622948E-3,.18015E-3,0
STARLINK-33969,2025-093V,2026-06-11T14:09:04.978080,15.27605162,.0001028,43.0057,267.5256,267.0867,92.9867,0,U,63855,999,6211,.34916E-3,.9366E-4,0
STARLINK-34002,2025-093W,2026-06-11T14:22:02.383680,15.27585896,.0001768,42.9941,267.5965,138.8653,221.2332,0,U,63856,999,6211,.67829E-3,.18453E-3,0
STARLINK-33999,2025-093X,2026-06-12T18:16:29.202240,15.27616316,.0001362,43.0000,260.8238,278.5133,81.5564,0,U,63857,999,6251,.81941E-3,.2238E-3,0
STARLINK-33976,2025-093Y,2026-06-11T23:39:34.550784,15.27586957,.0001998,42.9959,265.3241,275.4058,84.6566,0,U,63858,999,6223,.77977036E-3,.21262E-3,0
STARLINK-33821,2025-093Z,2026-06-11T23:59:54.491136,15.27592183,.00041737,43.0051,265.4198,265.2118,94.8258,0,U,63859,999,6237,.59916232E-3,.1627E-3,0
STARLINK-33888,2025-093AA,2026-06-12T17:04:32.818080,15.27610149,.0000521,43.0035,261.3258,308.1241,51.9564,0,U,63860,999,6250,.99385E-3,.27212E-3,0
STARLINK-33896,2025-093AB,2026-06-12T17:11:57.416928,15.27615873,.0000346,42.9975,261.3678,331.6878,28.3955,0,U,63861,999,6228,.65004E-3,.17688E-3,0
STARLINK-33878,2025-093AC,2026-06-11T23:58:04.427904,15.27608732,.00016932,43.0005,265.4073,269.9339,90.1319,0,U,63862,999,6238,.72029818E-3,.19629E-3,0
STARLINK-33954,2025-093AD,2026-06-11T00:36:49.800960,15.27635608,.00022387,43.0036,271.0293,275.0288,85.0308,0,U,63863,999,6202,.80631955E-3,.2203E-3,0
STARLINK-33863,2025-094A,2026-06-12T20:36:37.066176,14.98335006,.0002764,70.0017,354.7074,265.3415,94.7428,0,U,63864,999,6145,.4059E-3,.4754E-4,0
STARLINK-33897,2025-094B,2026-06-12T19:54:31.517280,14.98338063,.0003022,70.0014,354.6020,268.6755,91.4058,0,U,63865,999,6167,.26367E-3,.3055E-4,0
STARLINK-34022,2025-094C,2026-06-12T20:12:48.345408,14.98339625,.0002559,70.0018,354.6402,268.7593,91.3273,0,U,63866,999,6145,.38954E-3,.4559E-4,0
STARLINK-33979,2025-094D,2026-06-12T20:00:32.707296,14.98317705,.0002923,70.0029,354.6214,252.9099,107.1740,0,U,63867,999,6145,-.64906E-6,-.101E-5,0
STARLINK-34007,2025-094E,2026-06-12T20:30:35.572896,14.98334408,.0002693,70.0014,354.6908,266.6773,93.4078,0,U,63868,999,6145,.19513E-3,.2236E-4,0
STARLINK-34006,2025-094F,2026-06-12T19:30:43.308000,14.98339300,.0002354,70.0016,354.5414,269.6104,90.4786,0,U,63869,999,6145,.30138E-3,.3506E-4,0
STARLINK-33986,2025-094G,2026-06-12T19:42:44.508672,14.98340171,.000288,70.0016,354.5677,265.7306,94.3524,0,U,63870,999,6145,.2788E-3,.3236E-4,0
STARLINK-34013,2025-094H,2026-06-12T19:24:28.427040,14.98338503,.0002986,70.0012,354.5329,266.2674,93.8143,0,U,63871,999,6145,.26744E-3,.31E-4,0
STARLINK-34059,2025-094J,2026-06-12T20:24:34.915968,14.98333342,.0002919,70.0015,354.6774,270.2694,89.8131,0,U,63872,999,6145,.17156E-3,.1955E-4,0
STARLINK-33987,2025-094K,2026-06-12T19:36:29.837664,14.98334504,.0002712,70.0015,354.5581,268.8055,91.2793,0,U,63873,999,6145,.20524E-3,.2357E-4,0
STARLINK-34052,2025-094L,2026-06-12T20:18:34.232256,14.98332984,.0002709,70.0017,354.6590,261.9854,98.0998,0,U,63874,999,6145,.13681E-3,.154E-4,0
STARLINK-34023,2025-094M,2026-06-12T19:30:29.998080,14.98337794,.0002891,70.0016,354.5426,267.8759,92.2069,0,U,63875,999,6145,.43605E-3,.5115E-4,0
STARLINK-33778,2025-094P,2026-06-12T20:00:46.370592,14.98346146,.0002997,70.0026,354.6130,254.9958,105.0869,0,U,63877,999,6145,.18997E-3,.2175E-4,0
STARLINK-33901,2025-094Q,2026-06-12T20:24:49.336128,14.98334845,.0003092,70.0017,354.6671,269.1847,90.8957,0,U,63878,999,6145,.12447E-3,.1393E-4,0
STARLINK-33812,2025-094R,2026-06-12T19:48:30.775680,14.98341725,.000254,70.0014,354.5800,269.5453,90.5415,0,U,63879,999,6145,.34285E-3,.4001E-4,0
